NORAD_CAT_ID,TLE_LINE0,TLE_LINE1,TLE_LINE2,CREATION_DATE,OBJECT_NAME,OBJECT_ID,EPOCH,MEAN_MOTION,ECCENTRICITY,INCLINATION,RA_OF_ASC_NODE,ARG_OF_PERICENTER,MEAN_ANOMALY,REV_AT_EPOCH,BSTAR,MEAN_MOTION_DOT,MEAN_MOTION_DDOT,SEMIMAJOR_AXIS,PERIOD,APOAPSIS,PERIAPSIS,OBJECT_TYPE,COUNTRY_CODE,LAUNCH_DATE,SITE,DECAY_DATE,LAUNCH_YEAR,LAUNCH_SEQ,EPOCH_FINAL,ORBIT_CLASS,EVENT,DURATION,RCS_SIZE
434,0 ATLAS D R/B,1 00434U 62052  B 62276.56410840  .02128806 +00000-0 +00000-0 0  9994,2 00434 032.5500 058.6364 0091010 074.3805 143.5471 16.20772584000016,15/08/2004 23:35,ATLAS D R/B,1962-052B,03/10/1962 13:32,16.20772584,0.009101,32.55,58.6364,74.3805,143.5471,1,0.0,0.02128806,0.0,6595.596,88.846,277.487,157.434,ROCKET BODY,US,26/06/1962,AFETR,04/10/1962,1962,52,04/10/1962 03:04,LEO,1,100,LARGE
435,0 SL-3 DEB,1 00435U 62048  H 62276.16248160  .01944480 +00000-0 +00000-0 0  9993,2 00435 064.9860 166.0552 0000000 030.1182 079.9890 16.06638974000920,15/08/2004 23:35,SL-3 DEB,1962-048H,03/10/1962 03:53,16.06638974,0.0,64.986,166.0552,30.1182,79.989,92,0.0,0.0194448,0.0,6634.22,89.628,256.085,256.085,DEBRIS,CIS,18/06/1962,PKMTR,06/10/1962,1962,48,03/10/1962 07:47,LEO,1,110,SMALL
436,0 FTV 1134,1 00436U 62053  A 62318.62071490  .02794857 +19224-1 +00000-0 0  9999,2 00436 081.9616 320.0514 0000000 285.8051 072.7640 16.30544394005730,15/08/2004 23:35,FTV 1134,1962-053A,14/11/1962 14:53,16.30544394,0.0,81.9616,320.0514,285.8051,72.764,573,0.0,0.02794857,0.019224,6569.218,88.314,191.083,191.083,PAYLOAD,US,28/06/1962,AFWTR,16/11/1962,1962,53,15/11/1962 05:47,LEO,1,141,MEDIUM
437,0 COSMOS 10,1 00437U 62054  A 62290.80790496  .00150238 +00000-0 +00000-0 0  9992,2 00437 064.9989 194.7042 0129023 042.6433 318.3511 15.97019779000071,15/08/2004 23:35,COSMOS 10,1962-054A,17/10/1962 19:23,15.97019779,0.0129023,64.9989,194.7042,42.6433,318.3511,7,0.0,0.00150238,0.0,6660.833,90.167,368.638,196.758,PAYLOAD,CIS,30/06/1962,PKMTR,21/10/1962,1962,54,18/10/1962 14:46,LEO,1,113,MEDIUM
438,0 SL-3 R/B,1 00438U 62054  B 62307.17647540  .03447400 +38029-1 +00000-0 0  9999,2 00438 064.8999 134.7516 0005610 060.0026 112.4221 16.27505530002701,15/08/2004 23:35,SL-3 R/B,1962-054B,03/11/1962 04:14,16.2750553,0.000561,64.8999,134.7516,60.0026,112.4221,270,0.0,0.034474,0.038029,6577.393,88.478,202.948,195.568,ROCKET BODY,CIS,02/07/1962,PKMTR,05/11/1962,1962,54,03/11/1962 08:28,LEO,1,126,LARGE
441,0 COSMOS 11,1 00441U 62056  A 64138.82206554  .05585005 +00000-0 +00000-0 0  9990,2 00441 048.9264 342.2258 0006306 213.3021 146.6222 16.41327662088677,15/08/2004 23:35,COSMOS 11,1962-056A,17/05/1964 19:43,16.41327662,0.0006306,48.9264,342.2258,213.3021,146.6222,8867,0.0,0.05585005,0.0,6540.414,87.733,166.403,158.154,PAYLOAD,CIS,04/07/1962,PKMTR,18/05/1964,1962,56,18/05/1964 15:27,LEO,1,684,MEDIUM
442,0 SL-7 R/B,1 00442U 62056  B 63154.27331179  .02233441 +85970-0 +00000-0 0  9999,2 00442 048.9409 352.1454 0026149 057.3909 302.8111 16.19776346034806,15/08/2004 23:35,SL-7 R/B,1962-056B,03/06/1963 06:33,16.19776346,0.0026149,48.9409,352.1454,57.3909,302.8111,3480,0.0,0.02233441,0.8597,6598.3,88.901,237.419,202.911,ROCKET BODY,CIS,06/07/1962,PKMTR,05/06/1963,1962,56,03/06/1963 13:07,LEO,1,334,LARGE
443,0 SPUTNIK 22,1 00443U 62057  A 62297.80327270  .01124103 +00000-0 +00000-0 0  9998,2 00443 065.1128 336.4972 0044520 092.2650 229.0409 16.15589719000018,15/08/2004 23:35,SPUTNIK 22,1962-057A,24/10/1962 19:16,16.15589719,0.004452,65.1128,336.4972,92.265,229.0409,1,0.0,0.01124103,0.0,6609.694,89.131,260.986,202.133,PAYLOAD,CIS,08/07/1962,TTMTR,29/10/1962,1962,57,25/10/1962 14:33,LEO,1,113,MEDIUM
444,0 STARAD (FTV 1401),1 00444U 62058  A 67275.72914309  .04051752 +00000-0 +00000-0 0  9999,2 00444 071.2086 313.1571 0180665 356.9935 003.0064 15.98894888207634,15/08/2004 23:35,STARAD (FTV 1401),1962-058A,02/10/1967 17:29,15.98894888,0.0180665,71.2086,313.1571,356.9935,3.0064,20763,0.0,0.04051752,0.0,6655.624,90.062,397.733,157.246,PAYLOAD,US,25/08/1962,AFETR,05/10/1967,1962,58,03/10/1967 10:59,LEO,1,1867,MEDIUM
445,0 EXPLORER 15 (SERB 53B),1 00445U 62059  A 65295.78699703  .00001558 +00000-0 +00000-0 0  9990,2 00445 018.0402 259.6239 5606421 254.7222 039.4907 04.62410654050216,15/08/2004 23:35,EXPLORER 15 (SERB 53B),1962-059A,22/10/1965 18:53,4.62410654,0.5606421,18.0402,259.6239,254.7222,39.4907,5021,0.0,1.56e-05,0.0,15218.91,311.411,17373.137,308.413,PAYLOAD,US,27/08/1962,AFETR,15/01/1978,1962,59,23/10/1965 13:46,MEO,1,5620,LARGE
446,0 ANNA 1B,1 00446U 62060A   25193.63022222 -.00000123  00000-0  77742-5 0  9996,2 00446  50.1402 142.5175 0070167  87.5266  82.9411 13.35348692 58336,12/07/2025 17:51,ANNA 1B,1962-060A,12/07/2025 15:07,13.35348692,0.0070167,50.1402,142.5175,87.5266,82.9411,5833,7.77e-06,-1.23e-06,0.0,7504.793,107.837,1179.317,1073.999,PAYLOAD,US,31/10/1962,AFETR,,1962,60,13/07/2025 06:15,LEO,0,22901,MEDIUM
447,0 THOR ABLESTAR R/B,1 00447U 62060B   25193.62701595 -.00000104  00000-0  41337-4 0  9992,2 00447  50.1320 316.3486 0065760 242.9715 129.9070 13.39152918 66577,12/07/2025 17:51,THOR ABLESTAR R/B,1962-060B,12/07/2025 15:02,13.39152918,0.006576,50.132,316.3486,242.9715,129.907,6657,4.13e-05,-1.04e-06,0.0,7490.573,107.531,1161.696,1063.18,ROCKET BODY,US,31/10/1962,AFETR,,1962,60,13/07/2025 06:05,LEO,0,22901,LARGE
448,0 SL-6 R/B,1 00448U 62061  A 62306.10035519  .01737700 +00000-0 +00000-0 0  9997,2 00448 065.0910 318.6900 0046194 314.1999 033.2103 16.31692425000074,15/08/2004 23:35,SL-6 R/B,1962-061A,02/11/1962 02:24,16.31692425,0.0046194,65.091,318.69,314.1999,33.2103,7,0.0,0.017377,0.0,6566.136,88.251,218.333,157.67,ROCKET BODY,CIS,29/08/1962,PKMTR,03/11/1962,1962,61,02/11/1962 04:49,LEO,1,66,LARGE
449,0 SL-6 DEB,1 00449U 62061  B 62306.46906250  .05308277 +00000-0 +00000-0 0  9993,2 00449 065.0910 317.3024 0038632 314.0137 035.1528 16.33552171000133,15/08/2004 23:35,SL-6 DEB,1962-061B,02/11/1962 11:15,16.33552171,0.0038632,65.091,317.3024,314.0137,35.1528,13,0.0,0.05308277,0.0,6561.152,88.151,208.364,157.67,DEBRIS,CIS,31/08/1962,PKMTR,03/11/1962,1962,61,02/11/1962 22:30,LEO,1,64,SMALL
451,0 SPUTNIK 24,1 00451U 62062  A 62309.07273539  .11424110 +00000-0 +00000-0 0  9996,2 00451 064.8500 311.2631 0000000 039.8066 318.0029 16.38133527000073,15/08/2004 23:35,SPUTNIK 24,1962-062A,05/11/1962 01:44,16.38133527,0.0,64.85,311.2631,39.8066,318.0029,7,0.0,0.1142411,0.0,6548.913,87.904,170.778,170.778,PAYLOAD,CIS,02/09/1962,TTMTR,05/11/1962,1962,62,05/11/1962 03:29,LEO,1,64,MEDIUM
452,0 SL-6 DEB,1 00452U 62062  B 62309.01446700  .00851179 +00000-0 +00000-0 0  9990,2 00452 064.8500 311.4872 0049462 039.8321 317.6950 16.20554801000062,15/08/2004 23:35,SL-6 DEB,1962-062B,05/11/1962 00:20,16.20554801,0.0049462,64.85,311.4872,39.8321,317.695,6,0.0,0.00851179,0.0,6596.187,88.858,250.678,185.426,DEBRIS,CIS,04/09/1962,PKMTR,08/11/1962,1962,62,05/11/1962 00:41,LEO,1,65,SMALL
453,0 FTV 1136,1 00453U 62063  A 62333.18160462  .01124982 +00000-0 +00000-0 0  9991,2 00453 074.9671 035.0108 0058880 106.4835 254.1677 16.19428449003723,15/08/2004 23:35,FTV 1136,1962-063A,29/11/1962 04:21,16.19428449,0.005888,74.9671,35.0108,106.4835,254.1677,372,0.0,0.01124982,0.0,6599.245,88.92,259.966,182.254,PAYLOAD,US,12/09/1962,AFWTR,03/12/1962,1962,63,29/11/1962 08:43,LEO,1,82,MEDIUM
454,0 SL-6 R/B,1 00454U 62062  C 63018.15270080  .03636989 +00000-0 +00000-0 0  9994,2 00454 064.6791 045.9787 0038255 347.2279 012.6979 16.33416330011809,15/08/2004 23:35,SL-6 R/B,1962-062C,18/01/1963 03:39,16.3341633,0.0038255,64.6791,45.9787,347.2279,12.6979,1180,0.0,0.03636989,0.0,6561.515,88.158,208.482,158.279,ROCKET BODY,CIS,06/09/1962,PKMTR,19/01/1963,1962,62,18/01/1963 07:19,LEO,1,135,LARGE
456,0 SPUTNIK 22 DEB,1 00456U 62057  B 62335.20108789  .02961180 +00000-0 +00000-0 0  9996,2 00456 064.8384 208.0916 0061368 325.9277 161.1817 16.18510171005679,15/08/2004 23:35,SPUTNIK 22 DEB,1962-057B,01/12/1962 04:49,16.18510171,0.0061368,64.8384,208.0916,325.9277,161.1817,567,0.0,0.0296118,0.0,6601.741,88.97,264.119,183.092,DEBRIS,CIS,10/07/1962,TTMTR,02/12/1962,1962,57,01/12/1962 09:39,LEO,1,145,SMALL
457,0 SPUTNIK 22 DEB,1 00457U 62057  C 63055.63379144  .02418675 +00000-0 +00000-0 0  9995,2 00457 064.8544 271.8751 0065633 293.6265 065.6870 16.33527999018977,15/08/2004 23:35,SPUTNIK 22 DEB,1962-057C,24/02/1963 15:12,16.33527999,0.0065633,64.8544,271.8751,293.6265,65.687,1897,0.0,0.02418675,0.0,6561.216,88.152,226.145,140.018,DEBRIS,CIS,12/07/1962,TTMTR,26/02/1963,1962,57,25/02/1963 06:25,LEO,1,229,SMALL
458,0 SPUTNIK 22 DEB,1 00458U 62057  D 62331.22767530  .02715807 +00000-0 +00000-0 0  9994,2 00458 064.9216 222.9406 0037794 328.7745 139.5124 16.19476204005086,15/08/2004 23:35,SPUTNIK 22 DEB,1962-057D,27/11/1962 05:27,16.19476204,0.0037794,64.9216,222.9406,328.7745,139.5124,508,0.0,0.02715807,0.0,6599.115,88.917,245.921,196.039,DEBRIS,CIS,14/07/1962,TTMTR,29/11/1962,1962,57,27/11/1962 10:55,LEO,1,138,SMALL
459,0 SPUTNIK 22 DEB,1 00459U 62057  E 62336.68659770  .03007850 +00000-0 +00000-0 0  9999,2 00459 064.8694 204.5110 0094126 323.4781 168.6974 16.15020816005781,15/08/2004 23:35,SPUTNIK 22 DEB,1962-057E,02/12/1962 16:28,16.15020816,0.0094126,64.8694,204.511,323.4781,168.6974,578,0.0,0.0300785,0.0,6611.246,89.162,295.34,170.882,DEBRIS,CIS,16/07/1962,TTMTR,04/12/1962,1962,57,03/12/1962 08:57,LEO,1,141,SMALL
460,0 SPUTNIK 22 DEB,1 00460U 62057  F 62341.13037799  .02898551 +00000-0 +00000-0 0  9993,2 00460 064.7260 189.5494 0062297 321.8554 189.7254 16.18751374006556,15/08/2004 23:35,SPUTNIK 22 DEB,1962-057F,07/12/1962 03:07,16.18751374,0.0062297,64.726,189.5494,321.8554,189.7254,655,0.0,0.02898551,0.0,6601.085,88.957,264.073,181.827,DEBRIS,CIS,18/07/1962,TTMTR,08/12/1962,1962,57,07/12/1962 06:15,LEO,1,143,SMALL
